NORAD_CAT_ID,OBJECT_NAME,OBJECT_TYPE,EPOCH,MEAN_MOTION,ECCENTRICITY,INCLINATION,RA_OF_ASC_NODE,ARG_OF_PERICENTER,MEAN_ANOMALY,BSTAR,MEAN_MOTION_DOT,MEAN_MOTION_DDOT,TLE_LINE0,TLE_LINE1,TLE_LINE2,SEMIMAJOR_AXIS,PERIOD,APOGEE,PERIGEE,DECAYED
49427.0,STARLINK-3131,PAYLOAD,2023-02-15 20:53:08,15.08861651,0.0001727,53.2131,207.2096,104.6495,255.4688,0.0012252,0.00019276,0.0,0 STARLINK-3131,1 49427U 21104V   23046.87023287  .00019276  00000-0  12252-2 0  9995,2 49427  53.2131 207.2096 0001727 104.6495 255.4688 15.08861651 70977,6917.814,95.436,540.874,538.485,0.0
49427.0,STARLINK-3131,PAYLOAD,2023-02-16 09:36:13,15.08855347,0.0002115,53.2133,204.8291,96.684,263.4393,0.00075143,0.00011696,0.0,0 STARLINK-3131,1 49427U 21104V   23047.40015344  .00011696  00000-0  75143-3 0  9997,2 49427  53.2133 204.8291 0002115  96.6840 263.4393 15.08855347 71052,6917.833,95.437,541.162,538.235,0.0
49427.0,STARLINK-3131,PAYLOAD,2023-02-16 17:33:08,15.08854134,0.0002127,53.2127,203.3425,97.0792,263.0442,0.00047197,7.234e-05,0.0,0 STARLINK-3131,1 49427U 21104V   23047.73135104  .00007234  00000-0  47197-3 0  9991,2 49427  53.2127 203.3425 0002127  97.0792 263.0442 15.08854134 70011,6917.837,95.437,541.174,538.231,0.0
49427.0,STARLINK-3131,PAYLOAD,2023-02-17 11:02:23,15.08834591,7.8e-05,53.2139,200.0714,354.6348,5.4636,0.00023738,3.492e-05,0.0,0 STARLINK-3131,1 49427U 21104V   23048.45999752  .00003492  00000-0  23738-3 0  9995,2 49427  53.2139 200.0714 0000780 354.6348   5.4636 15.08834591 71212,6917.897,95.438,540.302,539.222,0.0
49427.0,STARLINK-3131,PAYLOAD,2023-02-18 10:53:11,15.08829705,8.49e-05,53.2177,195.6152,79.9722,280.1366,0.0001275,1.741e-05,0.0,0 STARLINK-3131,1 49427U 21104V   23049.45360581  .00001741  00000-0  12750-3 0  9995,2 49427  53.2177 195.6152 0000849  79.9722 280.1366 15.08829705 71367,6917.912,95.438,540.364,539.19,0.0
49427.0,STARLINK-3131,PAYLOAD,2023-02-19 13:54:45,15.08838207,0.0001244,53.2155,190.5583,83.7513,276.3621,0.00022498,3.294e-05,0.0,0 STARLINK-3131,1 49427U 21104V   23050.57968889  .00003294  00000-0  22498-3 0  9990,2 49427  53.2155 190.5583 0001244  83.7513 276.3621 15.08838207 70442,6917.886,95.438,540.611,538.89,0.0
49427.0,STARLINK-3131,PAYLOAD,2023-02-19 15:30:08,15.08839967,0.0001129,53.2136,190.2593,93.0537,267.0584,0.00024493,3.612e-05,0.0,0 STARLINK-3131,1 49427U 21104V   23050.64592727  .00003612  00000-0  24493-3 0  9993,2 49427  53.2136 190.2593 0001129  93.0537 267.0584 15.08839967 71542,6917.88,95.438,540.527,538.964,0.0
49427.0,STARLINK-3131,PAYLOAD,2023-02-20 13:45:31,15.08848419,0.0001106,53.2148,186.0954,92.6659,267.446,0.00021459,3.13e-05,0.0,0 STARLINK-3131,1 49427U 21104V   23051.57328288  .00003130  00000-0  21459-3 0  9999,2 49427  53.2148 186.0954 0001106  92.6659 267.4460 15.08848419 70597,6917.855,95.437,540.485,538.955,0.0
49427.0,STARLINK-3131,PAYLOAD,2023-02-20 18:31:40,15.08856359,0.0001144,53.2147,185.2028,83.8042,276.308,0.0003136,4.709e-05,0.0,0 STARLINK-3131,1 49427U 21104V   23051.77199852  .00004709  00000-0  31360-3 0  9999,2 49427  53.2147 185.2028 0001144  83.8042 276.3080 15.08856359 71713,6917.83,95.437,540.487,538.904,0.0
49427.0,STARLINK-3131,PAYLOAD,2023-02-21 15:11:41,15.08853623,0.0001199,53.2133,181.337,82.9838,277.129,0.00023787,3.501e-05,0.0,0 STARLINK-3131,1 49427U 21104V   23052.63311775  .00003501  00000-0  23787-3 0  9998,2 49427  53.2133 181.3370 0001199  82.9838 277.1290 15.08853623 71845,6917.839,95.437,540.533,538.874,0.0
49427.0,STARLINK-3131,PAYLOAD,2023-02-22 11:51:42,15.08840473,0.0001226,53.214,177.4704,76.7314,283.3815,2.9637e-06,-2.41e-06,0.0,0 STARLINK-3131,1 49427U 21104V   23053.49424062 -.00000241  00000-0  29637-5 0  9998,2 49427  53.2140 177.4704 0001226  76.7314 283.3815 15.08840473 71976,6917.879,95.438,540.592,538.896,0.0
49427.0,STARLINK-3131,PAYLOAD,2023-02-22 13:27:05,15.08840098,0.0001215,53.2143,177.1726,77.1483,282.9645,8.6562e-06,-1.5e-06,0.0,0 STARLINK-3131,1 49427U 21104V   23053.56048061 -.00000150  00000-0  86562-5 0  9996,2 49427  53.2143 177.1726 0001215  77.1483 282.9645 15.08840098 70899,6917.88,95.438,540.586,538.905,0.0
49427.0,STARLINK-3131,PAYLOAD,2023-02-22 18:13:14,15.08845488,0.0001347,53.2152,176.2816,98.6003,261.5142,5.7945e-05,6.35e-06,0.0,0 STARLINK-3131,1 49427U 21104V   23053.75919798  .00000635  00000-0  57945-4 0  9990,2 49427  53.2152 176.2816 0001347  98.6003 261.5142 15.08845488 70928,6917.864,95.437,540.66,538.797,0.0
49427.0,STARLINK-3131,PAYLOAD,2023-02-23 11:42:29,15.08836762,0.00011,53.2138,173.0104,103.5629,256.5485,7.818e-06,-1.63e-06,0.0,0 STARLINK-3131,1 49427U 21104V   23054.48784239 -.00000163  00000-0  78180-5 0  9993,2 49427  53.2138 173.0104 0001100 103.5629 256.5485 15.08836762 71036,6917.89,95.438,540.516,538.994,0.0
49427.0,STARLINK-3131,PAYLOAD,2023-02-23 13:17:52,15.08840224,0.0001102,53.2137,172.7126,108.6931,251.4181,7.5387e-05,9.12e-06,0.0,0 STARLINK-3131,1 49427U 21104V   23054.55408044  .00000912  00000-0  75387-4 0  9994,2 49427  53.2137 172.7126 0001102 108.6931 251.4181 15.08840224 72136,6917.88,95.438,540.507,538.982,0.0
49427.0,STARLINK-3131,PAYLOAD,2023-02-23 18:04:01,15.08852542,0.0001039,53.2139,171.8218,97.0172,263.0938,0.00030799,4.619e-05,0.0,0 STARLINK-3131,1 49427U 21104V   23054.75279770  .00004619  00000-0  30799-3 0  9993,2 49427  53.2139 171.8218 0001039  97.0172 263.0938 15.08852542 71074,6917.842,95.437,540.426,538.988,0.0
49427.0,STARLINK-3131,PAYLOAD,2023-02-24 11:33:16,15.08838481,0.0001188,53.2139,168.5502,115.2783,244.8332,0.00012822,1.753e-05,0.0,0 STARLINK-3131,1 49427U 21104V   23055.48144400  .00001753  00000-0  12822-3 0  9998,2 49427  53.2139 168.5502 0001188 115.2783 244.8332 15.08838481 71182,6917.885,95.438,540.572,538.928,0.0
49427.0,STARLINK-3131,PAYLOAD,2023-02-24 16:19:26,15.08843244,0.0001248,53.2148,167.6585,118.7185,241.3933,0.00022488,3.293e-05,0.0,0 STARLINK-3131,1 49427U 21104V   23055.68016267  .00003293  00000-0  22488-3 0  9999,2 49427  53.2148 167.6585 0001248 118.7185 241.3933 15.08843244 72301,6917.87,95.437,540.599,538.872,0.0
49427.0,STARLINK-3131,PAYLOAD,2023-02-25 06:37:54,15.08835022,0.0001491,53.2142,164.984,87.797,272.3193,5.3984e-05,5.71e-06,0.0,0 STARLINK-3131,1 49427U 21104V   23056.27632874  .00000571  00000-0  53984-4 0  9995,2 49427  53.2142 164.9840 0001491  87.7970 272.3193 15.08835022 72392,6917.896,95.438,540.792,538.729,0.0
49427.0,STARLINK-3131,PAYLOAD,2023-02-25 12:59:27,15.08828245,0.0001051,53.2142,163.7926,97.7697,262.3415,2.4107e-05,9.6e-07,0.0,0 STARLINK-3131,1 49427U 21104V   23056.54129146  .00000096  00000-0  24107-4 0  9995,2 49427  53.2142 163.7926 0001051  97.7697 262.3415 15.08828245 71342,6917.916,95.438,540.508,539.054,0.0
49427.0,STARLINK-3131,PAYLOAD,2023-02-25 14:34:50,15.08831386,0.0001011,53.2142,163.4953,94.8617,265.249,0.0001582,2.23e-05,0.0,0 STARLINK-3131,1 49427U 21104V   23056.60753150  .00002230  00000-0  15820-3 0  9993,2 49427  53.2142 163.4953 0001011  94.8617 265.2490 15.08831386 71351,6917.907,95.438,540.471,539.072,0.0
49427.0,STARLINK-3131,PAYLOAD,2023-02-26 06:28:42,15.08857458,0.0001021,53.2148,160.5226,90.2484,269.8625,0.0013866,0.00021859,0.0,0 STARLINK-3131,1 49427U 21104V   23057.26993057  .00021859  00000-0  13866-2 0  9993,2 49427  53.2148 160.5226 0001021  90.2484 269.8625 15.08857458 72541,6917.827,95.436,540.398,538.986,0.0
49427.0,STARLINK-3131,PAYLOAD,2023-02-26 11:14:51,15.08872977,0.0001029,53.2147,159.6305,88.5969,271.5141,0.0016691,0.000264,0.0,0 STARLINK-3131,1 49427U 21104V   23057.46864636  .00026400  00000-0  16691-2 0  9991,2 49427  53.2147 159.6305 0001029  88.5969 271.5141 15.08872977 71481,6917.78,95.435,540.356,538.933,0.0
49427.0,STARLINK-3131,PAYLOAD,2023-02-26 16:00:59,15.08888462,0.0001057,53.2136,158.7381,85.1519,274.9594,0.0020397,0.00032366,0.0,0 STARLINK-3131,1 49427U 21104V   23057.66736047  .00032366  00000-0  20397-2 0  9993,2 49427  53.2136 158.7381 0001057  85.1519 274.9594 15.08888462 72608,6917.732,95.434,540.328,538.866,0.0
49427.0,STARLINK-3131,PAYLOAD,2023-02-26 23:57:55,15.08875141,0.0001475,53.214,157.2508,67.9081,292.2068,0.0013418,0.00021152,0.0,0 STARLINK-3131,1 49427U 21104V   23057.99855967  .00021152  00000-0  13418-2 0  9999,2 49427  53.2140 157.2508 0001475  67.9081 292.2068 15.08875141 72658,6917.773,95.435,540.658,538.618,0.0
49427.0,STARLINK-3131,PAYLOAD,2023-02-27 06:19:27,15.08880808,0.0002371,53.2141,156.0618,73.7723,286.353,0.0018988,0.00030095,0.0,0 STARLINK-3131,1 49427U 21104V   23058.26351848  .00030095  00000-0  18988-2 0  9992,2 49427  53.2141 156.0618 0002371  73.7723 286.3530 15.08880808 71600,6917.756,95.435,541.261,537.98,0.0
49427.0,STARLINK-3131,PAYLOAD,2023-02-27 12:40:59,15.089037,0.0001484,53.2142,154.8726,73.4227,286.6928,0.0038968,0.00062388,0.0,0 STARLINK-3131,1 49427U 21104V   23058.52847149  .00062388  00000-0  38968-2 0  9995,2 49427  53.2142 154.8726 0001484  73.4227 286.6928 15.08903700 72733,6917.686,95.434,540.577,538.524,0.0
49427.0,STARLINK-3131,PAYLOAD,2023-02-28 06:10:14,15.08838112,0.0001202,53.2139,151.601,105.5661,254.5464,-0.00033445,-5.606e-05,0.0,0 STARLINK-3131,1 49427U 21104V   23059.25710730 -.00005606  00000-0 -33445-3 0  9999,2 49427  53.2139 151.6010 0001202 105.5661 254.5464 15.08838112 72842,6917.886,95.438,540.583,538.92,0.0
49427.0,STARLINK-3131,PAYLOAD,2023-02-28 12:31:46,15.08836116,0.0001148,53.2144,150.4101,113.2765,246.8348,0.001937,0.00030671,0.0,0 STARLINK-3131,1 49427U 21104V   23059.52207005  .00030671  00000-0  19370-2 0  9993,2 49427  53.2144 150.4101 0001148 113.2765 246.8348 15.08836116 71796,6917.892,95.438,540.551,538.963,0.0
49427.0,STARLINK-3131,PAYLOAD,2023-03-01 10:47:13,15.08791054,0.0001485,53.215,146.2497,83.3915,276.7246,0.001193,0.00018724,0.0,0 STARLINK-3131,1 49427U 21104V   23060.44946156  .00018724  00000-0  11930-2 0  9992,2 49427  53.2150 146.2497 0001485  83.3915 276.7246 15.08791054 73020,6918.03,95.441,540.922,538.868,0.0
